STARLINK-4261           
1 52868U 22062AQ  26068.26159278 -.00000918  00000+0 -39586-4 0  9997
2 52868  53.2186  26.0712 0001356  90.3405 269.7743 15.08834921205860
LEMUR-2-MARHISYAM       
1 60536U 24149BW  26068.74036894  .00013075  00000+0  82973-3 0  9990
2 60536  97.6912 151.2662 0003578 107.3271 252.8349 15.09015520 85478
